O3B FM15                
1 43231U 18024A   22349.19279999 -.00000013  00000+0  00000+0 0  9996
2 43231   0.0503  11.2063 0003082 253.7108  95.0504  5.00116211 86997
O3B FM16                
1 43232U 18024B   22349.64600085 -.00000012  00000+0  00000+0 0  9990
2 43232   0.0498  15.9382 0003080 250.0792  93.9503  5.00115987 86932
O3B FM14                
1 43233U 18024C   22349.68574142 -.00000012  00000+0  00000+0 0  9999
2 43233   0.0490  17.4649 0003009 251.9825  90.5210  5.00115411 86947
O3B FM13                
1 43234U 18024D   22349.53938392 -.00000012  00000+0  00000+0 0  9995
2 43234   0.0597   7.9994 0003911 256.8327  95.1261  5.00115354 87041
O3B FM20                
1 44112U 19020A   22349.51253904 -.00000012  00000+0  00000+0 0  9995
2 44112   0.0512   7.4670 0003392 261.7566  90.7404  5.00115524 67545
O3B FM19                
1 44113U 19020B   22348.53993784 -.00000014  00000+0  00000+0 0  9996
2 44113   0.0736  13.1084 0002517 280.4107  66.4571  5.00115436 67372
O3B FM17                
1 44114U 19020C   22349.61982094 -.00000012  00000+0  00000+0 0  9997
2 44114   0.0324  15.8138 0003203 249.2078  94.9447  5.00115701 67517
O3B FM18                
1 44115U 19020D   22349.56630960 -.00000012  00000+0  00000+0 0  9994
2 44115   0.0516   7.4849 0002974 256.4909  95.9932  5.00115879 67633
SALSAT                  
1 46495U 20068K   22349.81481156  .00003367  00000+0  23798-3 0  9998
2 46495  97.7492 291.4451 0017074  27.7820 332.4314 15.05477345121464
ISS (ZARYA)             
1 25544U 98067A   22349.96180387  .00011807  00000+0  21473-3 0  9998
2 25544  51.6429 156.1068 0003974 164.2019 335.9343 15.49972347373376
AEROCUBE 12A            
1 43556U 18046C   22349.77337343  .00045140  00000+0  83157-3 0  9999
2 43556  51.6344  14.8096 0007816 347.9320  12.1480 15.48668794247317
AEROCUBE 12B            
1 43557U 18046D   22349.39953675  .00030168  00000+0  65055-3 0  9991
2 43557  51.6360  24.9650 0007646 338.2347  21.8313 15.44282450247091
LEMUR-2-VU              
1 43558U 18046E   22349.70729592  .00156256  00000+0  12996-2 0  9998
2 43558  51.6322 341.9041 0008535  28.7085 331.4380 15.69082636247741
LEMUR-2-ALEXANDER       
1 43559U 18046F   22349.25854803  .00377297  00000+0  17382-2 0  9997
2 43559  51.6347 337.4435 0012681  79.9098 280.3335 15.81887411247543
LEMUR-2-YUASA           
1 43560U 18046G   22349.69407312  .00283088  00000+0  16179-2 0  9993
2 43560  51.6388 339.6013 0012370  77.0789 283.1593 15.77405237247776
LEMUR-2-TOMHENDERSON    
1 43561U 18046H   22349.00505087  .00131247  00000+0  13374-2 0  9990
2 43561  51.6386 352.2255 0008502  10.9203 349.1975 15.64139261247104
ICS-EF (ISS DEB)        
1 45265U 98067RJ  22349.59399530  .00080533  00000+0  48544-3 0  9991
2 45265  51.6321 110.3083 0003350 201.1164 158.9698 15.76960756160065
ISS DEB                 
1 47853U 98067RZ  22349.70056232  .00017361  00000+0  23481-3 0  9990
2 47853  51.6391 145.0061 0001340 294.8378  65.2474 15.57826311100121
MMSATS-1                
1 47976U 98067SJ  22349.74517965  .00064395  00000+0  48626-3 0  9992
2 47976  51.6365 127.6265 0001986 255.3185 245.5301 15.71836422 98638
CSS (TIANHE)            
1 48274U 21035A   22349.76893907  .00020072  00000+0  24663-3 0  9999
2 48274  41.4741 193.4096 0004114 115.1456 344.0886 15.59792761 93156
ISS (NAUKA)             
1 49044U 21066A   22349.56974730  .00009336  00000+0  17159-3 0  9993
2 49044  51.6425 158.0459 0003999 163.5159 307.5458 15.49959742373312
FREGAT DEB              
1 49271U 11037PF  22349.69803676 -.00009832  00000+0 -28437-1 0  9998
2 49271  51.6014  95.6484 0993008  62.7433 307.1022 11.99009376 68848
LIGHT-1                 
1 51509U 98067TG  22349.80256416  .00208448  00000+0  76387-3 0  9991
2 51509  51.6360 126.7522 0008422 202.2019 157.8622 15.87166385 49363
KITSUNE                 
1 52148U 98067TK  22349.86338288  .00076840  00000+0  64679-3 0  9995
2 52148  51.6363 141.1651 0005445 221.9584 291.1142 15.69143739 41568
PROGRESS-MS 20          
1 52795U 22059A   22349.69494484  .00009378  00000+0  17231-3 0  9997
2 52795  51.6423 157.4258 0004005 164.0593 286.0486 15.49962276373334
ISS DEB                 
1 52952U 98067TP  22349.78090318  .02603850  16262-1  21970-2 0  9992
2 52952  51.6194 138.5544 0010295 300.3082  59.6916 16.16885534 25970
CSS (WENTIAN)           
1 53239U 22085A   22349.57666509  .00020514  00000+0  25201-3 0  9997
2 53239  41.4739 194.5783 0004074 111.0935 347.0781 15.59787538 93127
1998-067TQ              
1 53305U 98067TQ  22349.84899981  .00126606  00000+0  10790-2 0  9991
2 53305  51.6359 148.8963 0006627 220.6882 139.3621 15.68614634 22941
YUZGU 8                 
1 53306U 98067TR  22349.85264078  .00194286  00000+0  13525-2 0  9994
2 53306  51.6331 147.4087 0006681 230.5842 129.4565 15.73214351 22967
1998-067TS              
1 53307U 98067TS  22349.85773128  .00184441  00000+0  13078-2 0  9991
2 53307  51.6321 147.4322 0006787 227.4740 132.5686 15.72813652 22998
YUZGU 9 (RS3S)          
1 53308U 98067TT  22349.80754383  .00187704  00000+0  13636-2 0  9994
2 53308  51.6338 147.8553 0006529 225.9710 134.0751 15.72234574 23015
YUZGU 7 (RS1S)          
1 53309U 98067TU  22349.84411328  .00189526  00000+0  13257-2 0  9991
2 53309  51.6333 147.3404 0007074 230.3032 129.7343 15.73113991 22976
YUZGU 11 (RS5S)         
1 53310U 98067TV  22349.80621067  .00188039  00000+0  13625-2 0  9999
2 53310  51.6337 147.8454 0006908 225.4101 134.6334 15.72291533 22994
YUZGU 12 (RS6S)         
1 53311U 98067TW  22348.86323309  .00177691  00000+0  12154-2 0  9991
2 53311  51.6328 152.0384 0006742 222.4241 137.6237 15.73677332 22871
TSIOLKOVSKY-RYAZAN 1 (*)
1 53312U 98067TX  22349.84952535  .00184171  00000+0  13082-2 0  9992
2 53312  51.6337 147.3861 0007336 231.0071 129.0274 15.72768204 22960
TSIOLKOVSKY-RYAZAN 2 (*)
1 53313U 98067TY  22349.84387091  .00187664  00000+0  13260-2 0  9990
2 53313  51.6344 147.3487 0006795 232.4273 127.6108 15.72885643 23014
YUZGU 10 (RS4S)         
1 53321U 98067TZ  22349.85865847  .00178564  00000+0  12746-2 0  9997
2 53321  51.6332 147.4454 0006857 229.2058 130.8346 15.72675462 23015
YUZGU UA                
1 53322U 98067UA  22349.84337392  .00200771  00000+0  13816-2 0  9991
2 53322  51.6335 147.3396 0006735 229.5707 130.4705 15.73463301 22968
HSU-SAT1                
1 53462U 98067UB  22349.87171541  .00086152  00000+0  88816-3 0  9999
2 53462  51.6347 150.5411 0008776 229.0455 130.9781 15.64035303 19559
FUTABA                  
1 53463U 98067UC  22349.83489423  .00124098  00000+0  11043-2 0  9996
2 53463  51.6331 149.5343 0009162 231.8990 128.1181 15.67541867 19564
TUMNANOSAT              
1 53464U 98067UD  22349.85852496  .00171448  00000+0  12859-2 0  9990
2 53464  51.6319 148.1864 0009660 236.7515 123.2558 15.71500095 19583
D3                      
1 53767U 98067UE  22349.73848328  .00065775  00000+0  80407-3 0  9992
2 53767  51.6373 153.4240 0005464 239.3102 120.7353 15.59777190 15629
BEAVERCUBE              
1 53768U 98067UF  22349.74457082  .00062243  00000+0  76512-3 0  9996
2 53768  51.6373 153.4572 0004224 224.1695 135.8961 15.59661171 15634
CLICK-A                 
1 53769U 98067UG  22349.69598727  .00050534  00000+0  53676-3 0  9999
2 53769  51.6436 152.4190 0005558 234.9389 125.1085 15.63526942 15641
CAPSAT 1                
1 53770U 98067UH  22349.86180911  .00183688  00000+0  14445-2 0  9999
2 53770  51.6347 149.7285 0008232 240.5336 119.4840 15.70345664 15693
JAGSAT 1                
1 53771U 98067UJ  22349.81599813  .00212255  00000+0  15238-2 0  9994
2 53771  51.6335 149.4162 0008424 242.6949 117.3192 15.72419069 15687
ISS DEB                 
1 53772U 98067UK  22349.85021257  .00097815  00000+0  10210-2 0  9999
2 53772  51.6360 151.9055 0007484 216.8310 143.2171 15.63677296 15655
SOYUZ-MS 22             
1 53879U 22116A   22349.69494484  .00009378  00000+0  17231-3 0  9995
2 53879  51.6423 157.4258 0004005 164.0593 286.0486 15.49962276373338
CREW DRAGON 5           
1 53963U 22124A   22349.69494484  .00009378  00000+0  17231-3 0  9998
2 53963  51.6423 157.4258 0004005 164.0593 286.0486 15.49962276373332
PROGRESS-MS 21          
1 54155U 22140A   22349.69494484  .00009378  00000+0  17231-3 0  9990
2 54155  51.6423 157.4258 0004005 164.0593 286.0486 15.49962276373336
CSS (MENGTIAN)          
1 54216U 22143A   22349.57666509  .00020514  00000+0  25201-3 0  9998
2 54216  41.4739 194.5783 0004074 111.0935 347.0781 15.59787538 93123
CYGNUS NG-18            
1 54232U 22149A   22349.69494484  .00009378  00000+0  17231-3 0  9995
2 54232  51.6423 157.4258 0004005 164.0593 286.0486 15.49962276373332
TIANZHOU-5              
1 54237U 22152A   22349.57666509  .00020514  00000+0  25201-3 0  9991
2 54237  41.4739 194.5783 0004074 111.0935 347.0781 15.59787538 93126
DRAGON CRS-26           
1 54371U 22159A   22349.69494484  .00009378  00000+0  17231-3 0  9990
2 54371  51.6423 157.4258 0004005 164.0593 286.0486 15.49962276373336
SHENZHOU-15             
1 54379U 22162A   22349.57666509  .00020514  00000+0  25201-3 0  9999
2 54379  41.4739 194.5783 0004074 111.0935 347.0781 15.59787538 93123
1998-067UL              
1 54534U 98067UL  22349.86263201  .00045722  00000+0  76235-3 0  9994
2 54534  51.6407 156.4895 0006509 175.0589 185.0465 15.51498787  2151
1998-067UM              
1 54535U 98067UM  22349.82293811  .00050586  00000+0  83837-3 0  9991
2 54535  51.6428 156.6727 0006778 173.5248 327.3046 15.51621512  2143
1998-067UN              
1 54536U 98067UN  22349.82355382  .00039605  00000+0  66394-3 0  9992
2 54536  51.6427 156.6806 0007122 173.2201 327.2352 15.51407461  2101
1998-067UP              
1 54537U 98067UP  22349.82312697  .00044184  00000+0  73605-3 0  9996
2 54537  51.6421 156.6745 0007258 172.9701 328.4183 15.51533483  2142
